[{"OBJECT_NAME":"STARLINK-37136","OBJECT_ID":"2026-059AC","EPOCH":"2026-04-14T20:00:01.999008","MEAN_MOTION":15.7232582,"ECCENTRICITY":6.17e-5,"INCLINATION":53.1591,"RA_OF_ASC_NODE":181.577,"ARG_OF_PERICENTER":90.4223,"MEAN_ANOMALY":233.4129,"EPHEMERIS_TYPE":0,"CLASSIFICATION_TYPE":"U","NORAD_CAT_ID":68347,"ELEMENT_SET_NO":999,"REV_AT_EPOCH":485,"BSTAR":-0.016265,"MEAN_MOTION_DOT":-0.01948194,"MEAN_MOTION_DDOT":0},{"OBJECT_NAME":"STARLINK-37182","OBJECT_ID":"2026-059AD","EPOCH":"2026-04-14T20:00:01.999008","MEAN_MOTION":15.67907047,"ECCENTRICITY":0.0001149,"INCLINATION":53.1591,"RA_OF_ASC_NODE":181.6871,"ARG_OF_PERICENTER":81.9167,"MEAN_ANOMALY":188.2315,"EPHEMERIS_TYPE":0,"CLASSIFICATION_TYPE":"U","NORAD_CAT_ID":68348,"ELEMENT_SET_NO":999,"REV_AT_EPOCH":485,"BSTAR":-0.019469,"MEAN_MOTION_DOT":-0.0193789,"MEAN_MOTION_DDOT":0},{"OBJECT_NAME":"STARLINK-37183","OBJECT_ID":"2026-059AE","EPOCH":"2026-04-12T17:55:58.319328","MEAN_MOTION":15.80978427,"ECCENTRICITY":7.956e-5,"INCLINATION":53.1582,"RA_OF_ASC_NODE":191.9623,"ARG_OF_PERICENTER":122.1032,"MEAN_ANOMALY":238.0068,"EPHEMERIS_TYPE":0,"CLASSIFICATION_TYPE":"U","NORAD_CAT_ID":68349,"ELEMENT_SET_NO":999,"REV_AT_EPOCH":336,"BSTAR":0.0010741046,"MEAN_MOTION_DOT":0.00217784,"MEAN_MOTION_DDOT":0},{"OBJECT_NAME":"CENTISPACE-1 OBJECT A","OBJECT_ID":"2026-060A","EPOCH":"2026-04-14T21:19:34.716000","MEAN_MOTION":14.73544241,"ECCENTRICITY":0.0010264,"INCLINATION":54.981,"RA_OF_ASC_NODE":294.0021,"ARG_OF_PERICENTER":332.8747,"MEAN_ANOMALY":27.1715,"EPHEMERIS_TYPE":0,"CLASSIFICATION_TYPE":"U","NORAD_CAT_ID":68350,"ELEMENT_SET_NO":999,"REV_AT_EPOCH":343,"BSTAR":9.1237e-5,"MEAN_MOTION_DOT":3.92e-6,"MEAN_MOTION_DDOT":0},{"OBJECT_NAME":"CENTISPACE-1 OBJECT B","OBJECT_ID":"2026-060B","EPOCH":"2026-04-14T13:08:01.980096","MEAN_MOTION":14.73762547,"ECCENTRICITY":0.00107131,"INCLINATION":54.9812,"RA_OF_ASC_NODE":295.3709,"ARG_OF_PERICENTER":336.3652,"MEAN_ANOMALY":23.6854,"EPHEMERIS_TYPE":0,"CLASSIFICATION_TYPE":"U","NORAD_CAT_ID":68351,"ELEMENT_SET_NO":999,"REV_AT_EPOCH":338,"BSTAR":0.00014842812,"MEAN_MOTION_DOT":7.71e-6,"MEAN_MOTION_DDOT":0},{"OBJECT_NAME":"CENTISPACE-1 OBJECT C","OBJECT_ID":"2026-060C","EPOCH":"2026-04-14T21:14:12.069888","MEAN_MOTION":14.73745383,"ECCENTRICITY":0.0009769,"INCLINATION":54.9808,"RA_OF_ASC_NODE":293.9803,"ARG_OF_PERICENTER":1.3913,"MEAN_ANOMALY":358.7111,"EPHEMERIS_TYPE":0,"CLASSIFICATION_TYPE":"U","NORAD_CAT_ID":68352,"ELEMENT_SET_NO":999,"REV_AT_EPOCH":343,"BSTAR":1.6887e-5,"MEAN_MOTION_DOT":-9.6e-7,"MEAN_MOTION_DDOT":0},{"OBJECT_NAME":"CENTISPACE-1 OBJECT D","OBJECT_ID":"2026-060D","EPOCH":"2026-04-14T21:12:07.913952","MEAN_MOTION":14.74292233,"ECCENTRICITY":0.00113,"INCLINATION":54.9824,"RA_OF_ASC_NODE":293.9768,"ARG_OF_PERICENTER":6.5124,"MEAN_ANOMALY":353.602,"EPHEMERIS_TYPE":0,"CLASSIFICATION_TYPE":"U","NORAD_CAT_ID":68353,"ELEMENT_SET_NO":999,"REV_AT_EPOCH":343,"BSTAR":1.7381e-5,"MEAN_MOTION_DOT":-9.2e-7,"MEAN_MOTION_DDOT":0},{"OBJECT_NAME":"CENTISPACE-1 OBJECT E","OBJECT_ID":"2026-060E","EPOCH":"2026-04-14T21:09:35.310816","MEAN_MOTION":14.74545111,"ECCENTRICITY":0.0012633,"INCLINATION":54.9757,"RA_OF_ASC_NODE":293.9533,"ARG_OF_PERICENTER":2.6553,"MEAN_ANOMALY":357.4511,"EPHEMERIS_TYPE":0,"CLASSIFICATION_TYPE":"U","NORAD_CAT_ID":68354,"ELEMENT_SET_NO":999,"REV_AT_EPOCH":343,"BSTAR":1.7621e-5,"MEAN_MOTION_DOT":-9.1e-7,"MEAN_MOTION_DDOT":0},{"OBJECT_NAME":"CENTISPACE-1 OBJECT F","OBJECT_ID":"2026-060F","EPOCH":"2026-04-14T21:12:14.469120","MEAN_MOTION":14.73875263,"ECCENTRICITY":0.0010373,"INCLINATION":54.9769,"RA_OF_ASC_NODE":293.9624,"ARG_OF_PERICENTER":356.7508,"MEAN_ANOMALY":3.3421,"EPHEMERIS_TYPE":0,"CLASSIFICATION_TYPE":"U","NORAD_CAT_ID":68355,"ELEMENT_SET_NO":999,"REV_AT_EPOCH":343,"BSTAR":1.7399e-5,"MEAN_MOTION_DOT":-9.2e-7,"MEAN_MOTION_DDOT":0},{"OBJECT_NAME":"CENTISPACE-1 OBJECT G","OBJECT_ID":"2026-060G","EPOCH":"2026-04-14T21:05:55.909248","MEAN_MOTION":14.74586495,"ECCENTRICITY":0.001275,"INCLINATION":54.9867,"RA_OF_ASC_NODE":293.9602,"ARG_OF_PERICENTER":358.5658,"MEAN_ANOMALY":1.5302,"EPHEMERIS_TYPE":0,"CLASSIFICATION_TYPE":"U","NORAD_CAT_ID":68356,"ELEMENT_SET_NO":999,"REV_AT_EPOCH":343,"BSTAR":1.7913e-5,"MEAN_MOTION_DOT":-8.9e-7,"MEAN_MOTION_DDOT":0},{"OBJECT_NAME":"CENTISPACE-1 OBJECT H","OBJECT_ID":"2026-060H","EPOCH":"2026-04-14T21:07:18.643296","MEAN_MOTION":14.74219237,"ECCENTRICITY":0.0011769,"INCLINATION":54.9854,"RA_OF_ASC_NODE":293.9641,"ARG_OF_PERICENTER":6.275,"MEAN_ANOMALY":353.8394,"EPHEMERIS_TYPE":0,"CLASSIFICATION_TYPE":"U","NORAD_CAT_ID":68357,"ELEMENT_SET_NO":999,"REV_AT_EPOCH":343,"BSTAR":1.8234e-5,"MEAN_MOTION_DOT":-8.7e-7,"MEAN_MOTION_DDOT":0},{"OBJECT_NAME":"CENTISPACE-1 OBJECT J","OBJECT_ID":"2026-060J","EPOCH":"2026-04-13T20:42:48.300192","MEAN_MOTION":14.74100555,"ECCENTRICITY":0.00117815,"INCLINATION":54.9815,"RA_OF_ASC_NODE":298.1015,"ARG_OF_PERICENTER":0.9389,"MEAN_ANOMALY":359.163,"EPHEMERIS_TYPE":0,"CLASSIFICATION_TYPE":"U","NORAD_CAT_ID":68358,"ELEMENT_SET_NO":999,"REV_AT_EPOCH":328,"BSTAR":1.9419123e-5,"MEAN_MOTION_DOT":-7.9e-7,"MEAN_MOTION_DDOT":0},{"OBJECT_NAME":"CENTISPACE-1 OBJECT K","OBJECT_ID":"2026-060K","EPOCH":"2026-04-04T15:27:21.758112","MEAN_MOTION":14.75283234,"ECCENTRICITY":0.0014769,"INCLINATION":54.98,"RA_OF_ASC_NODE":335.6935,"ARG_OF_PERICENTER":336.0624,"MEAN_ANOMALY":23.9687,"EPHEMERIS_TYPE":0,"CLASSIFICATION_TYPE":"U","NORAD_CAT_ID":68359,"ELEMENT_SET_NO":999,"REV_AT_EPOCH":192,"BSTAR":4.3130657e-5,"MEAN_MOTION_DOT":8.4e-7,"MEAN_MOTION_DDOT":0},{"OBJECT_NAME":"RASSVET-3 1","OBJECT_ID":"2026-061A","EPOCH":"2026-04-14T21:30:37.798848","MEAN_MOTION":15.86421703,"ECCENTRICITY":0.0021325,"INCLINATION":82.294,"RA_OF_ASC_NODE":83.6071,"ARG_OF_PERICENTER":354.2153,"MEAN_ANOMALY":5.8867,"EPHEMERIS_TYPE":0,"CLASSIFICATION_TYPE":"U","NORAD_CAT_ID":68360,"ELEMENT_SET_NO":999,"REV_AT_EPOCH":352,"BSTAR":0.0002456,"MEAN_MOTION_DOT":0.00062682,"MEAN_MOTION_DDOT":2.0808e-7},{"OBJECT_NAME":"RASSVET-3 2","OBJECT_ID":"2026-061B","EPOCH":"2026-04-14T18:12:17.978688","MEAN_MOTION":15.90845788,"ECCENTRICITY":0.0022758,"INCLINATION":82.296,"RA_OF_ASC_NODE":83.7365,"ARG_OF_PERICENTER":351.2508,"MEAN_ANOMALY":8.8364,"EPHEMERIS_TYPE":0,"CLASSIFICATION_TYPE":"U","NORAD_CAT_ID":68361,"ELEMENT_SET_NO":999,"REV_AT_EPOCH":350,"BSTAR":0.00028267,"MEAN_MOTION_DOT":0.00090128,"MEAN_MOTION_DDOT":1.7428e-6},{"OBJECT_NAME":"RASSVET-3 3","OBJECT_ID":"2026-061C","EPOCH":"2026-04-14T18:12:01.704384","MEAN_MOTION":15.9084843,"ECCENTRICITY":0.0022507,"INCLINATION":82.2959,"RA_OF_ASC_NODE":83.7358,"ARG_OF_PERICENTER":351.0395,"MEAN_ANOMALY":9.0472,"EPHEMERIS_TYPE":0,"CLASSIFICATION_TYPE":"U","NORAD_CAT_ID":68362,"ELEMENT_SET_NO":999,"REV_AT_EPOCH":350,"BSTAR":0.00027408,"MEAN_MOTION_DOT":0.00087366,"MEAN_MOTION_DDOT":1.5694e-6}]
