STARLINK-37136
1 68347U 26059AC  26104.83335647 -.01948194  00000+0 -16265-1 0  9990
2 68347  53.1591 181.5770 0000617  90.4223 233.4129 15.72325820  4853
STARLINK-37182
1 68348U 26059AD  26104.83335647 -.01937890  00000+0 -19469-1 0  9991
2 68348  53.1591 181.6871 0001149  81.9167 188.2315 15.67907047  4855
STARLINK-37183
1 68349U 26059AE  26102.74720277  .00217784  00000+0  10741-2 0  9992
2 68349  53.1582 191.9623 0000795 122.1032 238.0068 15.80978427  3369
CENTISPACE-1 OBJECT A
1 68350U 26060A   26104.88859625  .00000392  00000+0  91237-4 0  9999
2 68350  54.9810 294.0021 0010264 332.8747  27.1715 14.73544241  3434
CENTISPACE-1 OBJECT B
1 68351U 26060B   26104.54724514  .00000771  00000+0  14843-3 0  9999
2 68351  54.9812 295.3709 0010713 336.3652  23.6854 14.73762547  3387
CENTISPACE-1 OBJECT C
1 68352U 26060C   26104.88486192 -.00000096  00000+0  16887-4 0  9996
2 68352  54.9808 293.9803 0009769   1.3913 358.7111 14.73745383  3433
CENTISPACE-1 OBJECT D
1 68353U 26060D   26104.88342493 -.00000092  00000+0  17381-4 0  9998
2 68353  54.9824 293.9768 0011300   6.5124 353.6020 14.74292233  3432
CENTISPACE-1 OBJECT E
1 68354U 26060E   26104.88165869 -.00000091  00000+0  17621-4 0  9995
2 68354  54.9757 293.9533 0012633   2.6553 357.4511 14.74545111  3434
CENTISPACE-1 OBJECT F
1 68355U 26060F   26104.88350080 -.00000092  00000+0  17399-4 0  9990
2 68355  54.9769 293.9624 0010373 356.7508   3.3421 14.73875263  3431
CENTISPACE-1 OBJECT G
1 68356U 26060G   26104.87911932 -.00000089  00000+0  17913-4 0  9997
2 68356  54.9867 293.9602 0012750 358.5658   1.5302 14.74586495  3439
CENTISPACE-1 OBJECT H
1 68357U 26060H   26104.88007689 -.00000087  00000+0  18234-4 0  9999
2 68357  54.9854 293.9641 0011769   6.2750 353.8394 14.74219237  3439
CENTISPACE-1 OBJECT J
1 68358U 26060J   26103.86305903 -.00000079  00000+0  19419-4 0  9994
2 68358  54.9815 298.1015 0011781   0.9389 359.1630 14.74100555  3289
CENTISPACE-1 OBJECT K
1 68359U 26060K   26094.64400183  .00000084  00000+0  43131-4 0  9999
2 68359  54.9800 335.6935 0014769 336.0624  23.9687 14.75283234  1920
RASSVET-3 1
1 68360U 26061A   26104.89627082  .00062682  20808-6  24560-3 0  9991
2 68360  82.2940  83.6071 0021325 354.2153   5.8867 15.86421703  3522
RASSVET-3 2
1 68361U 26061B   26104.75854142  .00090128  17428-5  28267-3 0  9993
2 68361  82.2960  83.7365 0022758 351.2508   8.8364 15.90845788  3505
RASSVET-3 3
1 68362U 26061C   26104.75835306  .00087366  15694-5  27408-3 0  9994
2 68362  82.2959  83.7358 0022507 351.0395   9.0472 15.90848430  3500
